[{"OBJECT_NAME":"STARLINK-31599","OBJECT_ID":"2024-057H","EPOCH":"2026-03-09T09:01:25.964544","MEAN_MOTION":15.27563267,"ECCENTRICITY":0.00020586,"INCLINATION":43.0022,"RA_OF_ASC_NODE":188.6306,"ARG_OF_PERICENTER":290.3865,"MEAN_ANOMALY":69.6766,"EPHEMERIS_TYPE":0,"CLASSIFICATION_TYPE":"U","NORAD_CAT_ID":59327,"ELEMENT_SET_NO":999,"REV_AT_EPOCH":10979,"BSTAR":-9.1003077e-5,"MEAN_MOTION_DOT":-2.765e-5,"MEAN_MOTION_DDOT":0},{"OBJECT_NAME":"COSMOS 2576","OBJECT_ID":"2024-092A","EPOCH":"2026-03-09T19:49:29.705664","MEAN_MOTION":15.27760963,"ECCENTRICITY":0.0005946,"INCLINATION":97.4253,"RA_OF_ASC_NODE":186.0053,"ARG_OF_PERICENTER":159.7731,"MEAN_ANOMALY":200.3745,"EPHEMERIS_TYPE":0,"CLASSIFICATION_TYPE":"U","NORAD_CAT_ID":59773,"ELEMENT_SET_NO":999,"REV_AT_EPOCH":10127,"BSTAR":0.00056283,"MEAN_MOTION_DOT":0.00015211,"MEAN_MOTION_DDOT":0}]
