STARLINK-31599          
1 59327U 24057H   26068.37599496 -.00002765  00000+0 -91003-4 0  9996
2 59327  43.0022 188.6306 0002058 290.3865  69.6766 15.27563267109799
COSMOS 2576             
1 59773U 24092A   26068.82603826  .00015211  00000+0  56283-3 0  9991
2 59773  97.4253 186.0053 0005946 159.7731 200.3745 15.27760963101271
